{
    "links": {
        "self": "http://www.neowsapp.com/rest/v1/neo/3305500?api_key=iIulBulltgU6a56xZRHN4H3l9WmuAYTsLGpBGhQ2"
    },
    "id": "3305500",
    "neo_reference_id": "3305500",
    "name": "(2005 XN)",
    "designation": "2005 XN",
    "nasa_jpl_url": "http://ssd.jpl.nasa.gov/sbdb.cgi?sstr=3305500",
    "absolute_magnitude_h": 24.3,
    "estimated_diameter": {
        "kilometers": {
            "estimated_diameter_min": 0.0366906138,
            "estimated_diameter_max": 0.0820427065
        },
        "meters": {
            "estimated_diameter_min": 36.6906137531,
            "estimated_diameter_max": 82.0427064882
        },
        "miles": {
            "estimated_diameter_min": 0.0227984834,
            "estimated_diameter_max": 0.0509789586
        },
        "feet": {
            "estimated_diameter_min": 120.3760332259,
            "estimated_diameter_max": 269.1689931548
        }
    },
    "is_potentially_hazardous_asteroid": false,
    "close_approach_data": [
        {
            "close_approach_date": "2005-11-30",
            "close_approach_date_full": "2005-Nov-30 05:52",
            "epoch_date_close_approach": 1133329920000,
            "relative_velocity": {
                "kilometers_per_second": "12.9949058945",
                "kilometers_per_hour": "46781.6612201212",
                "miles_per_hour": "29068.3049953581"
            },
            "miss_distance": {
                "astronomical": "0.0630231954",
                "lunar": "24.5160230106",
                "kilometers": "9428135.792433798",
                "miles": "5858371.9251024924"
            },
            "orbiting_body": "Earth"
        }
    ],
    "orbital_data": {
        "orbit_id": "8",
        "orbit_determination_date": "2017-04-06 09:09:43",
        "first_observation_date": "2005-12-02",
        "last_observation_date": "2005-12-05",
        "data_arc_in_days": 3,
        "observations_used": 20,
        "orbit_uncertainty": "8",
        "minimum_orbit_intersection": ".0604552",
        "jupiter_tisserand_invariant": "3.944",
        "epoch_osculation": "2453708.5",
        "eccentricity": ".4182664894086788",
        "semi_major_axis": "1.758326996273226",
        "inclination": "21.15835216914857",
        "ascending_node_longitude": "71.88797207046719",
        "orbital_period": "851.6240018579691",
        "perihelion_distance": "1.022877736309517",
        "perihelion_argument": "335.9479926135543",
        "aphelion_distance": "2.493776256236935",
        "perihelion_time": "2453685.951248701672",
        "mean_anomaly": "9.531847916085267",
        "mean_motion": ".4227217636123407",
        "equinox": "J2000",
        "orbit_class": {
            "orbit_class_type": "AMO",
            "orbit_class_description": "Near-Earth asteroid orbits similar to that of 1221 Amor",
            "orbit_class_range": "1.017 AU < q (perihelion) < 1.3 AU"
        }
    },
    "is_sentry_object": false
}